start=new Date('2022-11-16T00:00:00.000Z').valueOf();
sats=[{"MEAN_MOTION_DOT":"0.00002496","ELEMENT_SET_NO":"999","COUNTRY_CODE":"US","CENTER_NAME":"EARTH","GP_ID":"217902409","OBJECT_TYPE":"PAYLOAD","REF_FRAME":"TEME","TIME_SYSTEM":"UTC","APOAPSIS":"548.227","PERIAPSIS":"546.227","SITE":"AFETR","REV_AT_EPOCH":"12255","FILE":"3657961","TLE_LINE2":"2 46376  53.0553   3.7328 0001444  65.7850 294.3289 15.06395462122559","RA_OF_ASC_NODE":"3.7328","BSTAR":"0.00018639000000","DECAY_DATE":null,"MEAN_ANOMALY":"294.3289","EPOCH":"2022-11-15T15:27:03.792096","NORAD_CAT_ID":"46376","OBJECT_ID":"2020-062BD","PERIOD":"95.592","OBJECT_NAME":"STARLINK-1742","RCS_SIZE":"LARGE","LAUNCH_DATE":"2020-09-03","SEMIMAJOR_AXIS":"6925.362","MEAN_MOTION":"15.06395462","MEAN_MOTION_DDOT":"0.0000000000000","ECCENTRICITY":"0.00014440","ARG_OF_PERICENTER":"65.7850","TLE_LINE1":"1 46376U 20062BD  22319.64379389  .00002496  00000-0  18639-3 0  9993","INCLINATION":"53.0553","EPHEMERIS_TYPE":"0","CLASSIFICATION_TYPE":"U","MEAN_ELEMENT_THEORY":"SGP4"},{"ARG_OF_PERICENTER":"71.4700","ECCENTRICITY":"0.00014660","TLE_LINE1":"1 46380U 20062BH  22319.47747314  .00001095  00000-0  92416-4 0  9996","MEAN_ELEMENT_THEORY":"SGP4","INCLINATION":"53.0560","EPHEMERIS_TYPE":"0","CLASSIFICATION_TYPE":"U","LAUNCH_DATE":"2020-09-03","OBJECT_NAME":"STARLINK-1758","RCS_SIZE":"LARGE","OBJECT_ID":"2020-062BH","PERIOD":"95.592","MEAN_MOTION_DDOT":"0.0000000000000","MEAN_MOTION":"15.06398110","SEMIMAJOR_AXIS":"6925.354","FILE":"3657603","TLE_LINE2":"2 46380  53.0560  29.4839 0001466  71.4700 288.6448 15.06398110122181","RA_OF_ASC_NODE":"29.4839","SITE":"AFETR","REV_AT_EPOCH":"12218","DECAY_DATE":null,"NORAD_CAT_ID":"46380","MEAN_ANOMALY":"288.6448","EPOCH":"2022-11-15T11:27:33.679296","BSTAR":"0.00009241600000","GP_ID":"217842568","ELEMENT_SET_NO":"999","COUNTRY_CODE":"US","CENTER_NAME":"EARTH","OBJECT_TYPE":"PAYLOAD","MEAN_MOTION_DOT":"0.00001095","PERIAPSIS":"546.204","APOAPSIS":"548.235","TIME_SYSTEM":"UTC","REF_FRAME":"TEME"},{"REV_AT_EPOCH":"12254","SITE":"AFETR","TLE_LINE2":"2 46382  53.0548   4.2707 0001923  49.6968 310.4189 15.06397253122548","RA_OF_ASC_NODE":"4.2707","FILE":"3657603","BSTAR":"-0.00004439000000","EPOCH":"2022-11-15T12:37:13.004544","MEAN_ANOMALY":"310.4189","NORAD_CAT_ID":"46382","DECAY_DATE":null,"MEAN_MOTION_DOT":"-0.00000943","OBJECT_TYPE":"PAYLOAD","ELEMENT_SET_NO":"999","COUNTRY_CODE":"US","CENTER_NAME":"EARTH","GP_ID":"217843815","REF_FRAME":"TEME","TIME_SYSTEM":"UTC","APOAPSIS":"548.554","PERIAPSIS":"545.890","TLE_LINE1":"1 46382U 20062BK  22319.52584496 -.00000943  00000-0 -44390-4 0  9995","ECCENTRICITY":"0.00019230","ARG_OF_PERICENTER":"49.6968","CLASSIFICATION_TYPE":"U","EPHEMERIS_TYPE":"0","INCLINATION":"53.0548","MEAN_ELEMENT_THEORY":"SGP4","PERIOD":"95.592","OBJECT_ID":"2020-062BK","OBJECT_NAME":"STARLINK-1769","RCS_SIZE":"LARGE","LAUNCH_DATE":"2020-09-03","SEMIMAJOR_AXIS":"6925.357","MEAN_MOTION":"15.06397253","MEAN_MOTION_DDOT":"0.0000000000000"},{"OBJECT_TYPE":"PAYLOAD","COUNTRY_CODE":"US","CENTER_NAME":"EARTH","ELEMENT_SET_NO":"999","GP_ID":"217843560","MEAN_MOTION_DOT":"0.00025764","APOAPSIS":"549.064","PERIAPSIS":"546.043","TIME_SYSTEM":"UTC","REF_FRAME":"TEME","RA_OF_ASC_NODE":"49.3279","TLE_LINE2":"2 46383  53.0555  49.3279 0002181  71.6336 288.4890 15.06289003121907","FILE":"3657603","REV_AT_EPOCH":"12190","SITE":"AFETR","MEAN_ANOMALY":"288.4890","EPOCH":"2022-11-15T12:18:00.313632","NORAD_CAT_ID":"46383","DECAY_DATE":null,"BSTAR":"0.00174740000000","RCS_SIZE":"LARGE","OBJECT_NAME":"STARLINK-1770","LAUNCH_DATE":"2020-09-03","PERIOD":"95.599","OBJECT_ID":"2020-062BL","MEAN_MOTION_DDOT":"0.0000000000000","SEMIMAJOR_AXIS":"6925.689","MEAN_MOTION":"15.06289003","TLE_LINE1":"1 46383U 20062BL  22319.51250363  .00025764  00000-0  17474-2 0  9995","ECCENTRICITY":"0.00021810","ARG_OF_PERICENTER":"71.6336","MEAN_ELEMENT_THEORY":"SGP4","EPHEMERIS_TYPE":"0","CLASSIFICATION_TYPE":"U","INCLINATION":"53.0555"},{"ECCENTRICITY":"0.00014120","ARG_OF_PERICENTER":"91.0641","TLE_LINE1":"1 46384U 20062BM  22319.58251518  .00002440  00000-0  18267-3 0  9994","MEAN_ELEMENT_THEORY":"SGP4","INCLINATION":"53.0540","EPHEMERIS_TYPE":"0","CLASSIFICATION_TYPE":"U","RCS_SIZE":"LARGE","OBJECT_NAME":"STARLINK-1771","LAUNCH_DATE":"2020-09-03","OBJECT_ID":"2020-062BM","PERIOD":"95.592","MEAN_MOTION_DDOT":"0.0000000000000","SEMIMAJOR_AXIS":"6925.365","MEAN_MOTION":"15.06394746","TLE_LINE2":"2 46384  53.0540  48.9950 0001412  91.0641 269.0509 15.06394746121918","RA_OF_ASC_NODE":"48.9950","FILE":"3657961","SITE":"AFETR","REV_AT_EPOCH":"12191","DECAY_DATE":null,"MEAN_ANOMALY":"269.0509","EPOCH":"2022-11-15T13:58:49.311552","NORAD_CAT_ID":"46384","BSTAR":"0.00018267000000","ELEMENT_SET_NO":"999","COUNTRY_CODE":"US","CENTER_NAME":"EARTH","GP_ID":"217902909","OBJECT_TYPE":"PAYLOAD","MEAN_MOTION_DOT":"0.00002440","APOAPSIS":"548.208","PERIAPSIS":"546.252","REF_FRAME":"TEME","TIME_SYSTEM":"UTC"},{"ECCENTRICITY":"0.00017460","ARG_OF_PERICENTER":"56.5198","TLE_LINE1":"1 46532U 20070A   22319.84790537  .00002311  00000-0  17398-3 0  9997","MEAN_ELEMENT_THEORY":"SGP4","INCLINATION":"53.0541","CLASSIFICATION_TYPE":"U","EPHEMERIS_TYPE":"0","OBJECT_NAME":"STARLINK-1644","RCS_SIZE":"LARGE","LAUNCH_DATE":"2020-10-06","OBJECT_ID":"2020-070A","PERIOD":"95.592","MEAN_MOTION_DDOT":"0.0000000000000","SEMIMAJOR_AXIS":"6925.361","MEAN_MOTION":"15.06396098","TLE_LINE2":"2 46532  53.0541 207.8153 0001746  56.5198 303.5958 15.06396098117153","RA_OF_ASC_NODE":"207.8153","FILE":"3657961","SITE":"AFETR","REV_AT_EPOCH":"11715","DECAY_DATE":null,"EPOCH":"2022-11-15T20:20:59.023968","MEAN_ANOMALY":"303.5958","NORAD_CAT_ID":"46532","BSTAR":"0.00017398000000","COUNTRY_CODE":"US","ELEMENT_SET_NO":"999","CENTER_NAME":"EARTH","GP_ID":"217903171","OBJECT_TYPE":"PAYLOAD","MEAN_MOTION_DOT":"0.00002311","APOAPSIS":"548.435","PERIAPSIS":"546.016","REF_FRAME":"TEME","TIME_SYSTEM":"UTC"},{"TLE_LINE2":"2 46533  53.0549 207.7540 0001861  48.8080 311.3070 15.06396118117158","RA_OF_ASC_NODE":"207.7540","FILE":"3657961","REV_AT_EPOCH":"11715","SITE":"AFETR","MEAN_ANOMALY":"311.3070","EPOCH":"2022-11-15T20:36:53.311104","NORAD_CAT_ID":"46533","DECAY_DATE":null,"BSTAR":"0.00013756000000","OBJECT_TYPE":"PAYLOAD","COUNTRY_CODE":"US","CENTER_NAME":"EARTH","ELEMENT_SET_NO":"999","GP_ID":"217901422","MEAN_MOTION_DOT":"0.00001768","APOAPSIS":"548.514","PERIAPSIS":"545.937","TIME_SYSTEM":"UTC","REF_FRAME":"TEME","TLE_LINE1":"1 46533U 20070B   22319.85895036  .00001768  00000-0  13756-3 0  9998","ECCENTRICITY":"0.00018610","ARG_OF_PERICENTER":"48.8080","MEAN_ELEMENT_THEORY":"SGP4","CLASSIFICATION_TYPE":"U","EPHEMERIS_TYPE":"0","INCLINATION":"53.0549","RCS_SIZE":"LARGE","OBJECT_NAME":"STARLINK-1648","LAUNCH_DATE":"2020-10-06","PERIOD":"95.592","OBJECT_ID":"2020-070B","MEAN_MOTION_DDOT":"0.0000000000000","SEMIMAJOR_AXIS":"6925.360","MEAN_MOTION":"15.06396118"},{"MEAN_MOTION_DOT":"0.00004513","OBJECT_TYPE":"PAYLOAD","COUNTRY_CODE":"US","ELEMENT_SET_NO":"999","CENTER_NAME":"EARTH","GP_ID":"217901672","TIME_SYSTEM":"UTC","REF_FRAME":"TEME","APOAPSIS":"548.680","PERIAPSIS":"545.719","REV_AT_EPOCH":"11715","SITE":"AFETR","RA_OF_ASC_NODE":"207.8479","TLE_LINE2":"2 46534  53.0534 207.8479 0002138  53.3225 306.7960 15.06404656117158","FILE":"3657961","BSTAR":"0.00032162000000","EPOCH":"2022-11-15T20:10:21.801504","MEAN_ANOMALY":"306.7960","NORAD_CAT_ID":"46534","DECAY_DATE":null,"PERIOD":"95.592","OBJECT_ID":"2020-070C","RCS_SIZE":"LARGE","OBJECT_NAME":"STARLINK-1659","LAUNCH_DATE":"2020-10-06","SEMIMAJOR_AXIS":"6925.334","MEAN_MOTION":"15.06404656","MEAN_MOTION_DDOT":"0.0000000000000","TLE_LINE1":"1 46534U 20070C   22319.84053011  .00004513  00000-0  32162-3 0  9990","ECCENTRICITY":"0.00021380","ARG_OF_PERICENTER":"53.3225","CLASSIFICATION_TYPE":"U","EPHEMERIS_TYPE":"0","INCLINATION":"53.0534","MEAN_ELEMENT_THEORY":"SGP4"},{"MEAN_MOTION":"15.06407474","SEMIMAJOR_AXIS":"6925.326","MEAN_MOTION_DDOT":"0.0000000000000","OBJECT_ID":"2020-070D","PERIOD":"95.592","LAUNCH_DATE":"2020-10-06","OBJECT_NAME":"STARLINK-1663","RCS_SIZE":"LARGE","INCLINATION":"53.0533","EPHEMERIS_TYPE":"0","CLASSIFICATION_TYPE":"U","MEAN_ELEMENT_THEORY":"SGP4","ARG_OF_PERICENTER":"55.5491","ECCENTRICITY":"0.00017540","TLE_LINE1":"1 46535U 20070D   22319.89581618  .00004064  00000-0  29149-3 0  9997","REF_FRAME":"TEME","TIME_SYSTEM":"UTC","PERIAPSIS":"545.976","APOAPSIS":"548.405","MEAN_MOTION_DOT":"0.00004064","GP_ID":"217902923","ELEMENT_SET_NO":"999","COUNTRY_CODE":"US","CENTER_NAME":"EARTH","OBJECT_TYPE":"PAYLOAD","BSTAR":"0.00029149000000","DECAY_DATE":null,"NORAD_CAT_ID":"46535","EPOCH":"2022-11-15T21:29:58.517952","MEAN_ANOMALY":"304.5664","SITE":"AFETR","REV_AT_EPOCH":"11715","RA_OF_ASC_NODE":"207.6048","TLE_LINE2":"2 46535  53.0533 207.6048 0001754  55.5491 304.5664 15.06407474117158","FILE":"3657961"},{"OBJECT_ID":"2020-070F","PERIOD":"95.593","LAUNCH_DATE":"2020-10-06","OBJECT_NAME":"STARLINK-1672","RCS_SIZE":"LARGE","MEAN_MOTION":"15.06387667","SEMIMAJOR_AXIS":"6925.386","MEAN_MOTION_DDOT":"0.0000000000000","ARG_OF_PERICENTER":"55.6746","ECCENTRICITY":"0.00017040","TLE_LINE1":"1 46537U 20070F   22319.85527732  .00000573  00000-0  57355-4 0  9994","INCLINATION":"53.0549","CLASSIFICATION_TYPE":"U","EPHEMERIS_TYPE":"0","MEAN_ELEMENT_THEORY":"SGP4","MEAN_MOTION_DOT":"0.00000573","GP_ID":"217902674","COUNTRY_CODE":"US","ELEMENT_SET_NO":"999","CENTER_NAME":"EARTH","OBJECT_TYPE":"PAYLOAD","TIME_SYSTEM":"UTC","REF_FRAME":"TEME","PERIAPSIS":"546.071","APOAPSIS":"548.431","SITE":"AFETR","REV_AT_EPOCH":"11715","FILE":"3657961","TLE_LINE2":"2 46537  53.0549 207.7841 0001704  55.6746 304.4404 15.06387667117150","RA_OF_ASC_NODE":"207.7841","BSTAR":"0.00005735500000","DECAY_DATE":null,"NORAD_CAT_ID":"46537","EPOCH":"2022-11-15T20:31:35.960448","MEAN_ANOMALY":"304.4404"}];
